NORAD_CAT_ID,OBJECT_NAME,OBJECT_TYPE,EPOCH,MEAN_MOTION,ECCENTRICITY,INCLINATION,RA_OF_ASC_NODE,ARG_OF_PERICENTER,MEAN_ANOMALY,BSTAR,MEAN_MOTION_DOT,MEAN_MOTION_DDOT,TLE_LINE0,TLE_LINE1,TLE_LINE2,SEMIMAJOR_AXIS,PERIOD,APOGEE,PERIGEE,DECAYED
55635.0,STARLINK-5495,PAYLOAD,2023-04-15 19:35:40,15.69928827,0.000394,69.9998,349.554,271.201,88.8734,3.5136e-05,4.015e-05,0.0,0 STARLINK-5495,1 55635U 23021H   23105.81643576  .00004015  00000-0  35136-4 0  9995,2 55635  69.9998 349.5540 0003940 271.2010  88.8734 15.69928827  9504,6737.238,91.724,361.757,356.448,0.0
55635.0,STARLINK-5495,PAYLOAD,2023-04-16 01:42:40,15.69933125,0.0003953,69.9998,348.837,273.6137,86.4606,2.2641e-05,2.511e-05,0.0,0 STARLINK-5495,1 55635U 23021H   23106.07129842  .00002511  00000-0  22641-4 0  9995,2 55635  69.9998 348.8370 0003953 273.6137  86.4606 15.69933125  9843,6737.225,91.724,361.754,356.427,0.0
55635.0,STARLINK-5495,PAYLOAD,2023-04-16 18:31:56,15.69935305,0.000379,69.9992,346.8679,275.4607,84.6156,-3.7906e-05,-4.771e-05,0.0,0 STARLINK-5495,1 55635U 23021H   23106.77218109 -.00004771  00000-0 -37906-4 0  9999,2 55635  69.9992 346.8679 0003790 275.4607  84.6156 15.69935305  9952,6737.219,91.724,361.637,356.531,0.0
55635.0,STARLINK-5495,PAYLOAD,2023-04-17 02:10:41,15.69934886,0.0003665,69.9988,345.9719,276.2305,83.8473,-2.4968e-05,-3.216e-05,0.0,0 STARLINK-5495,1 55635U 23021H   23107.09076350 -.00003216  00000-0 -24968-4 0  9992,2 55635  69.9988 345.9719 0003665 276.2305  83.8473 15.69934886  9694,6737.22,91.724,361.554,356.616,0.0
55635.0,STARLINK-5495,PAYLOAD,2023-04-17 22:03:28,15.69935033,0.0003369,69.9995,343.6419,268.4278,91.6531,4.088e-05,4.708e-05,0.0,0 STARLINK-5495,1 55635U 23021H   23107.91908199  .00004708  00000-0  40880-4 0  9994,2 55635  69.9995 343.6419 0003369 268.4278  91.6531 15.69935033 10135,6737.22,91.724,361.355,356.815,0.0
55635.0,STARLINK-5495,PAYLOAD,2023-04-18 01:06:58,15.6993519,0.0003491,69.9997,343.284,268.849,91.2306,4.2996e-05,4.963e-05,0.0,0 STARLINK-5495,1 55635U 23021H   23108.04651545  .00004963  00000-0  42996-4 0  9992,2 55635  69.9997 343.2840 0003491 268.8490  91.2306 15.69935190 10159,6737.219,91.724,361.436,356.732,0.0
55635.0,STARLINK-5495,PAYLOAD,2023-04-18 14:52:45,15.69922453,0.0003105,70.0001,341.6727,271.8844,88.1996,1.6448e-05,1.765e-05,0.0,0 STARLINK-5495,1 55635U 23021H   23108.61997325  .00001765  00000-0  16448-4 0  9994,2 55635  70.0001 341.6727 0003105 271.8844  88.1996 15.69922453  9946,6737.256,91.724,361.213,357.029,0.0
55635.0,STARLINK-5495,PAYLOAD,2023-04-18 17:56:15,15.69923147,0.0003153,69.9994,341.3146,271.8692,88.2143,1.7224e-05,1.859e-05,0.0,0 STARLINK-5495,1 55635U 23021H   23108.74740648  .00001859  00000-0  17224-4 0  9999,2 55635  69.9994 341.3146 0003153 271.8692  88.2143 15.69923147 10263,6737.254,91.724,361.243,356.995,0.0
55635.0,STARLINK-5495,PAYLOAD,2023-04-19 01:35:01,15.69926698,0.0003189,69.999,340.4191,275.0931,84.9901,1.9801e-05,2.169e-05,0.0,0 STARLINK-5495,1 55635U 23021H   23109.06598838  .00002169  00000-0  19801-4 0  9995,2 55635  69.9990 340.4191 0003189 275.0931  84.9901 15.69926698 10315,6737.244,91.724,361.257,356.96,0.0
55635.0,STARLINK-5495,PAYLOAD,2023-04-19 16:52:32,15.69925815,0.0003253,69.9983,338.6259,260.3119,99.7709,4.7187e-06,3.55e-06,0.0,0 STARLINK-5495,1 55635U 23021H   23109.70315475  .00000355  00000-0  47187-5 0  9994,2 55635  69.9983 338.6259 0003253 260.3119  99.7709 15.69925815 10419,6737.246,91.724,361.303,356.92,0.0
55635.0,STARLINK-5495,PAYLOAD,2023-04-20 02:03:02,15.69935297,0.0003206,69.9985,337.5512,255.7771,104.3069,3.1964e-05,3.634e-05,0.0,0 STARLINK-5495,1 55635U 23021H   23110.08544991  .00003634  00000-0  31964-4 0  9992,2 55635  69.9985 337.5512 0003206 255.7771 104.3069 15.69935297 10171,6737.219,91.724,361.244,356.924,0.0
55635.0,STARLINK-5495,PAYLOAD,2023-04-20 15:48:49,15.69917321,0.0003259,69.9977,335.9371,252.2412,107.8428,-7.8156e-06,-1.152e-05,0.0,0 STARLINK-5495,1 55635U 23021H   23110.65890972 -.00001152  00000-0 -78156-5 0  9998,2 55635  69.9977 335.9371 0003259 252.2412 107.8428 15.69917321 10567,6737.271,91.725,361.331,356.94,0.0
55635.0,STARLINK-5495,PAYLOAD,2023-04-21 00:59:20,15.69933369,0.0003458,69.9973,334.8632,264.737,95.3431,3.6675e-05,4.201e-05,0.0,0 STARLINK-5495,1 55635U 23021H   23111.04120475  .00004201  00000-0  36675-4 0  9991,2 55635  69.9973 334.8632 0003458 264.7370  95.3431 15.69933369 10322,6737.225,91.724,361.419,356.76,0.0
55635.0,STARLINK-5495,PAYLOAD,2023-04-21 08:38:05,15.69932597,0.0003694,69.9985,333.9699,270.7484,89.3289,3.7787e-05,4.335e-05,0.0,0 STARLINK-5495,1 55635U 23021H   23111.35978819  .00004335  00000-0  37787-4 0  9991,2 55635  69.9985 333.9699 0003694 270.7484  89.3289 15.69932597 10677,6737.227,91.724,361.581,356.603,0.0
55635.0,STARLINK-5495,PAYLOAD,2023-04-21 20:52:06,15.69933543,0.0003435,69.9983,332.5363,266.6687,93.4115,9.812e-06,9.68e-06,0.0,0 STARLINK-5495,1 55635U 23021H   23111.86951752  .00000968  00000-0  98120-5 0  9991,2 55635  69.9983 332.5363 0003435 266.6687  93.4115 15.69933543 10755,6737.224,91.724,361.403,356.775,0.0
55635.0,STARLINK-5495,PAYLOAD,2023-04-22 13:41:23,15.69919615,0.0003271,69.999,330.5643,271.4307,88.6514,2.2856e-05,2.536e-05,0.0,0 STARLINK-5495,1 55635U 23021H   23112.57041055  .00002536  00000-0  22856-4 0  9991,2 55635  69.9990 330.5643 0003271 271.4307  88.6514 15.69919615 10868,6737.264,91.724,361.333,356.925,0.0
55635.0,STARLINK-5495,PAYLOAD,2023-04-22 21:20:09,15.6991828,0.0004259,69.9973,329.6698,262.0475,98.0238,-1.9038e-05,-2.502e-05,0.0,0 STARLINK-5495,1 55635U 23021H   23112.88899384 -.00002502  00000-0 -19038-4 0  9994,2 55635  69.9973 329.6698 0004259 262.0475  98.0238 15.69918280 10918,6737.268,91.725,362.002,356.263,0.0
55635.0,STARLINK-5495,PAYLOAD,2023-04-23 14:09:25,15.69929452,0.0003626,69.9986,327.6977,261.5735,98.5049,2.9926e-05,3.388e-05,0.0,0 STARLINK-5495,1 55635U 23021H   23113.58987335  .00003388  00000-0  29926-4 0  9994,2 55635  69.9986 327.6977 0003626 261.5735  98.5049 15.69929452 10727,6737.236,91.724,361.544,356.658,0.0
55635.0,STARLINK-5495,PAYLOAD,2023-04-23 17:12:55,15.69940073,0.0003593,69.999,327.34,260.9621,99.1168,5.6829e-05,6.63e-05,0.0,0 STARLINK-5495,1 55635U 23021H   23113.71730363  .00006630  00000-0  56829-4 0  9991,2 55635  69.9990 327.3400 0003593 260.9621  99.1168 15.69940073 10743,6737.205,91.723,361.491,356.65,0.0
55635.0,STARLINK-5495,PAYLOAD,2023-04-24 13:05:40,15.69958931,0.0003411,69.9997,325.011,258.3322,101.749,0.00010273,0.00012175,0.0,0 STARLINK-5495,1 55635U 23021H   23114.54561000  .00012175  00000-0  10273-3 0  9996,2 55635  69.9997 325.0110 0003411 258.3322 101.7490 15.69958931 11179,6737.151,91.722,361.315,356.718,0.0
55635.0,STARLINK-5495,PAYLOAD,2023-04-25 13:33:46,15.69870207,0.0003701,70.0007,322.1436,270.6612,89.416,-8.5723e-05,-0.00010485,0.0,0 STARLINK-5495,1 55635U 23021H   23115.56511884 -.00010485  00000-0 -85723-4 0  9991,2 55635  70.0007 322.1436 0003701 270.6612  89.4160 15.69870207 11337,6737.405,91.727,361.764,356.777,0.0
55635.0,STARLINK-5495,PAYLOAD,2023-04-26 20:08:43,15.70008589,0.0003449,70.0034,318.5643,259.5706,100.5101,0.00011552,0.00013749,0.0,0 STARLINK-5495,1 55635U 23021H   23116.83939075  .00013749  00000-0  11552-3 0  9990,2 55635  70.0034 318.5643 0003449 259.5706 100.5101 15.70008589 11535,6737.009,91.719,361.198,356.551,0.0
55635.0,STARLINK-5495,PAYLOAD,2023-04-27 20:36:48,15.6980199,0.0002153,70.0014,315.6939,253.4119,106.684,-0.00053119,-0.0006327,0.0,0 STARLINK-5495,1 55635U 23021H   23117.85889581 -.00063270  00000-0 -53119-3 0  9990,2 55635  70.0014 315.6939 0002153 253.4119 106.6840 15.69801990 11397,6737.601,91.731,360.916,358.015,0.0
55635.0,STARLINK-5495,PAYLOAD,2023-04-28 08:00:01,15.69864519,0.000376,70.0007,314.3607,270.3217,250.4736,0.00030406,0.00036419,0.0,0 STARLINK-5495,1 55635U 23021H   23118.33334491  .00036419  00000-0  30406-3 0  9996,2 55635  70.0007 314.3607 0003760 270.3217 250.4736 15.69864519 11465,6737.422,91.728,361.82,356.753,0.0
55635.0,STARLINK-5495,PAYLOAD,2023-04-28 11:54:18,15.69904146,0.0002716,70.002,313.9055,257.294,102.7952,3.9116e-05,4.489e-05,0.0,0 STARLINK-5495,1 55635U 23021H   23118.49604955  .00004489  00000-0  39116-4 0  9998,2 55635  70.0020 313.9055 0002716 257.2940 102.7952 15.69904146 11481,6737.308,91.725,361.003,357.343,0.0
55635.0,STARLINK-5495,PAYLOAD,2023-04-28 22:36:35,15.69893025,0.0003899,69.999,312.6508,274.0371,86.0379,7.5767e-06,6.97e-06,0.0,0 STARLINK-5495,1 55635U 23021H   23118.94208010  .00000697  00000-0  75767-5 0  9990,2 55635  69.9990 312.6508 0003899 274.0371  86.0379 15.69893025 11560,6737.34,91.726,361.832,356.578,0.0
55635.0,STARLINK-5495,PAYLOAD,2023-04-29 13:54:06,15.69915558,0.0003366,69.9996,310.8589,263.4964,96.5848,4.0748e-05,4.688e-05,0.0,0 STARLINK-5495,1 55635U 23021H   23119.57924553  .00004688  00000-0  40748-4 0  9991,2 55635  69.9996 310.8589 0003366 263.4964  96.5848 15.69915558 11961,6737.276,91.725,361.408,356.873,0.0
55635.0,STARLINK-5495,PAYLOAD,2023-04-29 16:57:37,15.69919809,0.0003841,69.9991,310.5001,271.4738,88.6018,4.8998e-05,5.682e-05,0.0,0 STARLINK-5495,1 55635U 23021H   23119.70667834  .00005682  00000-0  48998-4 0  9992,2 55635  69.9991 310.5001 0003841 271.4738  88.6018 15.69919809 11670,6737.263,91.724,361.716,356.541,0.0
55635.0,STARLINK-5495,PAYLOAD,2023-04-29 23:04:37,15.69932497,0.0004096,69.9997,309.784,271.9086,88.1641,7.9309e-05,9.338e-05,0.0,0 STARLINK-5495,1 55635U 23021H   23119.96154113  .00009338  00000-0  79309-4 0  9993,2 55635  69.9997 309.7840 0004096 271.9086  88.1641 15.69932497 11711,6737.227,91.724,361.852,356.333,0.0
55635.0,STARLINK-5495,PAYLOAD,2023-04-30 14:22:09,15.69914036,0.0003906,69.9989,307.9911,270.8243,89.2505,2.5474e-05,2.85e-05,0.0,0 STARLINK-5495,1 55635U 23021H   23120.59872031  .00002850  00000-0  25474-4 0  9996,2 55635  69.9989 307.9911 0003906 270.8243  89.2505 15.69914036 11825,6737.28,91.725,361.777,356.513,0.0
